{
  "links" : {
    "next" : "https://api.nasa.gov/neo/rest/v1/feed?start_date=2015-11-16&end_date=2015-11-16&detailed=true&api_key=t0TVs3DtDT2H8Oy2Zy8m2eVrNsAVKAexjcZXUckd",
    "prev" : "https://api.nasa.gov/neo/rest/v1/feed?start_date=2015-11-14&end_date=2015-11-14&detailed=true&api_key=t0TVs3DtDT2H8Oy2Zy8m2eVrNsAVKAexjcZXUckd",
    "self" : "https://api.nasa.gov/neo/rest/v1/feed?start_date=2015-11-15&end_date=2015-11-15&detailed=true&api_key=t0TVs3DtDT2H8Oy2Zy8m2eVrNsAVKAexjcZXUckd"
  },
  "element_count" : 7,
  "near_earth_objects" : {
    "2015-11-15" : [ {
      "links" : {
        "self" : "https://api.nasa.gov/neo/rest/v1/neo/3735394?api_key=t0TVs3DtDT2H8Oy2Zy8m2eVrNsAVKAexjcZXUckd"
      },
      "neo_reference_id" : "3735394",
      "name" : "(2015 WB1)",
      "nasa_jpl_url" : "http://ssd.jpl.nasa.gov/sbdb.cgi?sstr=3735394",
      "absolute_magnitude_h" : 23.5,
      "estimated_diameter" : {
        "kilometers" : {
          "estimated_diameter_min" : 0.0530340723,
          "estimated_diameter_max" : 0.1185877909
        },
        "meters" : {
          "estimated_diameter_min" : 53.0340723319,
          "estimated_diameter_max" : 118.5877908577
        },
        "miles" : {
          "estimated_diameter_min" : 0.0329538346,
          "estimated_diameter_max" : 0.0736870142
        },
        "feet" : {
          "estimated_diameter_min" : 173.9963058693,
          "estimated_diameter_max" : 389.0675677576
        }
      },
      "is_potentially_hazardous_asteroid" : false,
      "close_approach_data" : [ {
        "close_approach_date" : "2015-11-15",
        "epoch_date_close_approach" : 1447574400000,
        "relative_velocity" : {
          "kilometers_per_second" : "15.3045190156",
          "kilometers_per_hour" : "55096.268456088",
          "miles_per_hour" : "34234.6785859509"
        },
        "miss_distance" : {
          "astronomical" : "0.0147556264",
          "lunar" : "5.739938736",
          "kilometers" : "2207410.25",
          "miles" : "1371621.125"
        },
        "orbiting_body" : "Earth"
      } ],
      "orbital_data" : {
        "orbit_id" : "16",
        "orbit_determination_date" : "2017-04-06 08:30:31",
        "orbit_uncertainty" : "7",
        "minimum_orbit_intersection" : ".0134267",
        "jupiter_tisserand_invariant" : "3.246",
        "epoch_osculation" : "2458000.5",
        "eccentricity" : ".6512538044186955",
        "semi_major_axis" : "2.331079203144639",
        "inclination" : "3.885825312253063",
        "ascending_node_longitude" : "41.29720368892359",
        "orbital_period" : "1299.971920407394",
        "perihelion_distance" : ".8129550036953916",
        "perihelion_argument" : "315.0905108837911",
        "aphelion_distance" : "3.849203402593886",
        "perihelion_time" : "2458604.354211723610",
        "mean_anomaly" : "192.7752216737318",
        "mean_motion" : ".2769290585039567",
        "equinox" : "J2000"
      }
    }, {
      "links" : {
        "self" : "https://api.nasa.gov/neo/rest/v1/neo/3735466?api_key=t0TVs3DtDT2H8Oy2Zy8m2eVrNsAVKAexjcZXUckd"
      },
      "neo_reference_id" : "3735466",
      "name" : "(2015 WW1)",
      "nasa_jpl_url" : "http://ssd.jpl.nasa.gov/sbdb.cgi?sstr=3735466",
      "absolute_magnitude_h" : 24.9,
      "estimated_diameter" : {
        "kilometers" : {
          "estimated_diameter_min" : 0.0278326768,
          "estimated_diameter_max" : 0.0622357573
        },
        "meters" : {
          "estimated_diameter_min" : 27.8326768072,
          "estimated_diameter_max" : 62.2357573367
        },
        "miles" : {
          "estimated_diameter_min" : 0.0172944182,
          "estimated_diameter_max" : 0.0386714948
        },
        "feet" : {
          "estimated_diameter_min" : 91.3145593761,
          "estimated_diameter_max" : 204.1855621004
        }
      },
      "is_potentially_hazardous_asteroid" : false,
      "close_approach_data" : [ {
        "close_approach_date" : "2015-11-15",
        "epoch_date_close_approach" : 1447574400000,
        "relative_velocity" : {
          "kilometers_per_second" : "8.6368042423",
          "kilometers_per_hour" : "31092.4952721995",
          "miles_per_hour" : "19319.6674095508"
        },
        "miss_distance" : {
          "astronomical" : "0.0404506823",
          "lunar" : "15.7353153229",
          "kilometers" : "6051336",
          "miles" : "3760125.75"
        },
        "orbiting_body" : "Earth"
      } ],
      "orbital_data" : {
        "orbit_id" : "13",
        "orbit_determination_date" : "2017-04-06 08:30:29",
        "orbit_uncertainty" : "7",
        "minimum_orbit_intersection" : ".0317591",
        "jupiter_tisserand_invariant" : "4.317",
        "epoch_osculation" : "2458000.5",
        "eccentricity" : ".3936060836041965",
        "semi_major_axis" : "1.571719928284099",
        "inclination" : "5.164134750859597",
        "ascending_node_longitude" : "247.8027545302353",
        "orbital_period" : "719.7160147442186",
        "perihelion_distance" : ".9530814027895258",
        "perihelion_argument" : "126.8317642365127",
        "aphelion_distance" : "2.190358453778671",
        "perihelion_time" : "2458031.269968906294",
        "mean_anomaly" : "344.6089449458719",
        "mean_motion" : ".5001972897990066",
        "equinox" : "J2000"
      }
    }, {
      "links" : {
        "self" : "https://api.nasa.gov/neo/rest/v1/neo/3735467?api_key=t0TVs3DtDT2H8Oy2Zy8m2eVrNsAVKAexjcZXUckd"
      },
      "neo_reference_id" : "3735467",
      "name" : "(2015 WX1)",
      "nasa_jpl_url" : "http://ssd.jpl.nasa.gov/sbdb.cgi?sstr=3735467",
      "absolute_magnitude_h" : 23.4,
      "estimated_diameter" : {
        "kilometers" : {
          "estimated_diameter_min" : 0.0555334912,
          "estimated_diameter_max" : 0.1241766613
        },
        "meters" : {
          "estimated_diameter_min" : 55.5334911581,
          "estimated_diameter_max" : 124.1766612574
        },
        "miles" : {
          "estimated_diameter_min" : 0.0345069009,
          "estimated_diameter_max" : 0.0771597762
        },
        "feet" : {
          "estimated_diameter_min" : 182.1964991311,
          "estimated_diameter_max" : 407.4037573197
        }
      },
      "is_potentially_hazardous_asteroid" : false,
      "close_approach_data" : [ {
        "close_approach_date" : "2015-11-15",
        "epoch_date_close_approach" : 1447574400000,
        "relative_velocity" : {
          "kilometers_per_second" : "9.7322227625",
          "kilometers_per_hour" : "35036.0019450313",
          "miles_per_hour" : "21770.0090974557"
        },
        "miss_distance" : {
          "astronomical" : "0.0641146801",
          "lunar" : "24.9406108856",
          "kilometers" : "9591420",
          "miles" : "5959832"
        },
        "orbiting_body" : "Earth"
      } ],
      "orbital_data" : {
        "orbit_id" : "21",
        "orbit_determination_date" : "2017-04-06 08:30:29",
        "orbit_uncertainty" : "7",
        "minimum_orbit_intersection" : ".0573214",
        "jupiter_tisserand_invariant" : "3.177",
        "epoch_osculation" : "2458000.5",
        "eccentricity" : ".6053781610414586",
        "semi_major_axis" : "2.508399549648485",
        "inclination" : "3.565926289285641",
        "ascending_node_longitude" : "106.8372421866372",
        "orbital_period" : "1451.087156033519",
        "perihelion_distance" : ".9898692431250623",
        "perihelion_argument" : "280.2093121985549",
        "aphelion_distance" : "4.026929856171908",
        "perihelion_time" : "2457323.224798676790",
        "mean_anomaly" : "168.0251054959539",
        "mean_motion" : ".248089853530262",
        "equinox" : "J2000"
      }
    } ]
  }
}